#aV2013  1 21  0  0  0.00000000     288 DD+AD WGS84 FIT  NGA
## 1724  86400.00000000   300.00000000 56313 0.0000000000000
+   31     1  2  3  4  5  6  7  8  9 10 11 12 13 14 15 16 17
+         18 19 20 21 22 23 24 25 26 28 29 30 31 32  0  0  0
+          0  0  0  0  0  0  0  0  0  0  0  0  0  0  0  0  0
+          0  0  0  0  0  0  0  0  0  0  0  0  0  0  0  0  0
+          0  0  0  0  0  0  0  0  0  0  0  0  0  0  0  0  0
++         2  2  2  2  2  2  2  2  2  2  2  2  2  2  2  2  2
++         2  2  2  2  2  2  2  2  2  2  2  2  2  2  2  0  0
++         0  0  0  0  0  0  0  0  0  0  0  0  0  0  0  0  0
++         0  0  0  0  0  0  0  0  0  0  0  0  0  0  0  0  0
++         0  0  0  0  0  0  0  0  0  0  0  0  0  0  0  0  0
%c cc cc ccc ccc cccc cccc cccc cccc ccccc ccccc ccccc ccccc
%c cc cc ccc ccc cccc cccc cccc cccc ccccc ccccc ccccc ccccc
%f  0.0000000  0.000000000  0.00000000000  0.000000000000000
%f  0.0000000  0.000000000  0.00000000000  0.000000000000000
%i    0    0    0    0      0      0      0      0         0
%i    0    0    0    0      0      0      0      0         0
/*      NGA, ST. LOUIS,MO.                                  
/*   EPHEMERIS COMPUTED FROM  1 DAYS OF DATA
/*   EPOCHA SMOOTHER  
/* CCCCCCCCCCCCCCCCCCCCCCCCCCCCCCCCCCCCCCCCCCCCCCCCCCCCCCCCC
*  2013  1 21 21 35  0.00000000                                                 
P  1 -14463.456670   5151.053510  21646.385710    294.871869                    
V  1  -5222.959269 -27049.012907   3009.035625      0.024496                    
P  2  13931.383628  18134.796741 -13754.514464    415.623354                    
V  2   1130.848415  17735.935799  23710.995967      0.012863                    
P  3 -24300.737584  -9562.779590  -5979.533556    158.035923                    
V  3   7460.880250  -1784.873257 -29769.793715      0.048809                    
P  4   6516.624483  25494.285155  -2435.715070    111.729288                    
V  4  -3195.109116   3433.564924  31216.118912      0.111002                    
P  5  17084.213342   4244.660999 -19958.138394   -379.800447                    
V  5 -18507.971087  17253.227426 -12053.115400     -0.019915                    
P  6 -20738.565215 -13566.323307  -9912.228747    380.006897                    
V  6  12937.707124    812.554520 -27570.779211     -0.138713                    
P  7  -7510.067108  19910.094060 -15668.793649    171.621085                    
V  7  -5025.792972 -19501.906336 -22585.961368      0.044110                    
P  8  -1640.757454  25604.400873  -5417.962349      4.165581                    
V  8  -2576.502505  -6934.701135 -31966.326244      0.003031                    
P  9  14634.170503  11205.546806  18548.843456    215.313192                    
V  9   3296.633283  24486.812731 -16956.421147      0.027136                    
P 10    969.824426  17785.170507 -19865.695537    -67.054100                    
V 10 -20136.788796  14525.605756  12611.880856     -0.013952                    
P 11 -18057.227148  -1402.126406  19071.207898   -345.804146                    
V 11  -9894.948922 -23437.901550 -10564.618597     -0.036663                    
P 12  22602.140869  -9901.134724   9533.873650    113.622778                    
V 12  -8215.544513   9215.600954  29181.578729      0.020668                    
P 13 -14780.197606   8217.622783 -20647.152030    150.751911                    
V 13 -23038.757671 -11664.091124  11820.018470     -0.028887                    
P 14  -4617.676551 -16930.527439  20174.196753    219.813816                    
V 14  23326.048832   9312.293612  13145.689903      0.004111                    
P 15  25616.643937   3291.563367   6720.568164   -105.867357                    
V 15   7151.073170   5532.743491 -29626.566449     -0.011642                    
P 16 -15696.253593  -5418.899853 -20812.843262   -251.938277                    
V 16  20487.962602 -16450.374908 -10852.340872     -0.002448                    
P 17   6767.213438  17194.430224  19371.429531     57.399931                    
V 17 -22738.118190  -7981.394550  14946.378954     -0.036503                    
P 18  13683.634209 -20692.957602   9371.126933    235.524222                    
V 18  11188.089457  -4626.561703 -28042.374592      0.018757                    
P 19 -25090.957318  -8040.392348   4717.308442   -341.877029                    
V 19  -4454.030261  -4695.429180 -30774.213209     -0.032725                    
P 20 -22050.912236  11822.507551   8625.242089     80.944455                    
V 20   5753.374529 -10341.763951  28378.830271      0.015049                    
P 21   4905.922744 -22675.573480 -11887.363545   -275.959778                    
V 21   6451.397003  15297.456189 -25938.622377     -0.022734                    
P 22   2537.314771 -19629.963377  17833.556967    156.340427                    
V 22  18620.491845 -12738.135453 -16976.984003      0.007738                    
P 23 -22666.930853   2019.243295 -13949.301626    121.614143                    
V 23 -15855.220316  -8050.936445  24116.707043     -0.037450                    
P 24  15284.271803  -1046.829396  21698.442382      0.266011                    
V 24   4954.693894  27105.830651  -2156.164156     -0.006734                    
P 25  19436.924945 -17981.991342  -1400.086777     64.494319                    
V 25   2981.045926    802.165347  31976.630120      0.026875                    
P 26  22481.797418  13913.591938  -4695.061408   -130.018749                    
V 26  -5368.714835   -539.242211 -31241.982519      0.138483                    
P 28  -7121.037410  19592.408004  16921.613248    225.566352                    
V 28 -17090.099818  11256.442628 -21143.177034      0.033871                    
P 29  15052.924945  -8750.200502 -19992.262456    400.213651                    
V 29  23151.740428  10748.383949  12731.470473      0.037598                    
P 30  -7232.695736 -14185.068769 -21611.932771   -246.161871                    
V 30  18824.580112 -18819.103529   6131.704924      0.105638                    
P 31  -8285.819044 -24156.928886  -6578.922673    298.748015                    
V 31    953.892477  -8906.051950  30887.345170      0.018957                    
P 32 -21898.578315   2743.092637  14547.276231   -528.335146                    
V 32  13529.288900 -12818.156916  23530.363837     -0.034903                    
EOF
